STARLINK-2156           
1 47742U 21017W   24171.87201080 -.00001868  00000+0 -10661-3 0  9997
2 47742  53.0548 139.9996 0001368  93.6757 266.4389 15.06388316183294
STARLINK-2157           
1 47743U 21017X   24171.63243637 -.00000984  00000+0 -47211-4 0  9996
2 47743  53.0540 141.0740 0001373  93.5979 266.5167 15.06377289183235
STARLINK-2158           
1 47744U 21017Y   24171.91667824  .00743777  00000+0  28398-2 0  9991
2 47744  53.0506 105.2416 0000986 127.8442 284.4905 15.85075183  5962
STARLINK-2159           
1 47745U 21017Z   24171.90426049 -.00000156  00000+0  84410-5 0  9991
2 47745  53.0537 149.8529 0001281  86.5741 273.5395 15.06388259183107
STARLINK-2160           
1 47746U 21017AA  24171.36610895 -.00000294  00000+0 -86022-6 0  9992
2 47746  53.0532 152.2702 0001437  91.0363 269.0791 15.06392512183015
STARLINK-2161           
1 47747U 21017AB  24171.62874195 -.00000297  00000+0 -10692-5 0  9999
2 47747  53.0543 141.0917 0001414  89.9618 270.1533 15.06387337183236
STARLINK-2162           
1 47748U 21017AC  24171.88675563 -.00000304  00000+0 -15457-5 0  9999
2 47748  53.0543 139.9322 0001391  91.9481 268.1667 15.06387478183240
STARLINK-2163           
1 47749U 21017AD  24171.63609988  .00000780  00000+0  71253-4 0  9992
2 47749  53.0539 141.0580 0001334  90.2066 269.9076 15.06398618183201
STARLINK-2164           
1 47750U 21017AE  24171.61399101  .00000095  00000+0  25268-4 0  9999
2 47750  53.0542 141.1582 0001403  94.5747 265.5402 15.06391384183208
STARLINK-2168           
1 47751U 21017AF  24171.91667824  .00166301  00000+0  14865-2 0  9995
2 47751  53.0506 108.6510 0001184 123.2563 249.5065 15.67358569  5979
STARLINK-2169           
1 47752U 21017AG  24171.94341287  .00000530  00000+0  54448-4 0  9995
2 47752  53.0538 144.6767 0001330  89.8772 270.2369 15.06399179183230
STARLINK-2170           
1 47753U 21017AH  24171.91901000 -.00000765  00000+0 -32501-4 0  9996
2 47753  53.0545 149.7911 0001455  91.4884 268.6271 15.06389664183159
STARLINK-2171           
1 47754U 21017AJ  24171.35873570  .00001968  00000+0  15102-3 0  9996
2 47754  53.0538 152.3027 0001344  85.7273 274.3869 15.06390080183033
STARLINK-2174           
1 47756U 21017AL  24171.95216931  .00001027  00000+0  87784-4 0  9998
2 47756  53.0539 149.6383 0001470  87.8104 272.3053 15.06409734183160
STARLINK-2175           
1 47757U 21017AM  24171.93743310 -.00000125  00000+0  10528-4 0  9994
2 47757  53.0536 149.7063 0001445  90.2026 269.9129 15.06395608183101
STARLINK-2178           
1 47760U 21017AQ  24171.70429422  .00000265  00000+0  36657-4 0  9993
2 47760  53.0548 160.7540 0001297  93.7869 266.3269 15.06392952182967
STARLINK-2179           
1 47761U 21017AR  24171.66835783  .00000593  00000+0  58744-4 0  9995
2 47761  53.0535 150.9143 0001329  95.7416 264.3725 15.06391728183078
STARLINK-2180           
1 47762U 21017AS  24171.69461554  .00002576  00000+0  19179-3 0  9991
2 47762  53.0530 165.8083 0000969  99.5950 260.5148 15.06392281182886
STARLINK-2181           
1 47763U 21017AT  24171.37854916  .00000137  00000+0  28113-4 0  9995
2 47763  53.0548 157.2124 0001355  92.9743 267.1401 15.06390085182957
STARLINK-2182           
1 47764U 21017AU  24171.67987290 -.00000147  00000+0  90274-5 0  9991
2 47764  53.0541 165.8618 0001318  91.9217 268.1923 15.06390309182913
STARLINK-2184           
1 47766U 21017AW  24171.69736335  .00000251  00000+0  35747-4 0  9995
2 47766  53.0540 165.7748 0001427  92.2813 267.8339 15.06387738182856
STARLINK-2185           
1 47767U 21017AX  24171.65730087  .00000512  00000+0  53257-4 0  9996
2 47767  53.0548 150.9659 0001404  95.4694 264.6455 15.06390000183120
STARLINK-2189           
1 47768U 21017AY  24171.69835987 -.00000229  00000+0  35223-5 0  9996
2 47768  53.0545 166.1769 0001380  90.0937 270.0210 15.06389925182889
STARLINK-2192           
1 47769U 21017AZ  24171.30897991  .00000800  00000+0  72614-4 0  9996
2 47769  53.0546 132.5243 0001474  88.1682 271.9476 15.06396325183342
STARLINK-2193           
1 47770U 21017BA  24171.64854720  .00001137  00000+0  95252-4 0  9995
2 47770  53.0537 146.0037 0001265 100.9284 259.1848 15.06388442183166
STARLINK-2194           
1 47771U 21017BB  24171.65960681  .00002429  00000+0  18187-3 0  9997
2 47771  53.0547 145.9553 0001367  85.4523 274.6622 15.06401672183179
STARLINK-2195           
1 47772U 21017BC  24171.38361801  .00000127  00000+0  27427-4 0  9998
2 47772  53.0538 162.1895 0001278  90.0114 270.1022 15.06389221182897
STARLINK-2196           
1 47773U 21017BD  24171.71165285 -.00000425  00000+0 -96246-5 0  9993
2 47773  53.0543 160.7211 0001299  96.2086 263.9051 15.06396476182936
STARLINK-2197           
1 47774U 21017BE  24171.70797508  .00001519  00000+0  12086-3 0  9993
2 47774  53.0536 160.7383 0001424  86.8083 273.3069 15.06397713182941
STARLINK-2198           
1 47775U 21017BF  24171.38730570  .00000208  00000+0  32833-4 0  9991
2 47775  53.0537 162.1736 0001399  94.5411 265.5738 15.06388589182940
STARLINK-2209           
1 47776U 21017BG  24171.67940734  .00000946  00000+0  82390-4 0  9991
2 47776  53.0537 150.8640 0001245  95.1546 264.9585 15.06398355183097
STARLINK-2210           
1 47777U 21017BH  24171.94848559  .00000550  00000+0  55847-4 0  9992
2 47777  53.0535 149.6543 0001313  86.1594 273.9545 15.06397001183131
STARLINK-2211           
1 47778U 21017BJ  24171.64991702  .00001210  00000+0  10010-3 0  9995
2 47778  53.0548 150.9980 0001347  91.9089 268.2054 15.06402894183089
STARLINK-2213           
1 47780U 21017BL  24171.94111992  .00001445  00000+0  11591-3 0  9991
2 47780  53.0534 149.6884 0001309  91.1148 268.9991 15.06391317183164
STARLINK-2223           
1 47781U 21017BM  24171.64256164 -.00000371  00000+0 -60398-5 0  9990
2 47781  53.0546 151.0289 0001375  93.0708 267.0438 15.06385558183076
STARLINK-2257           
1 47787U 21018A   24171.46194226  .00000873  00000+0  77474-4 0  9994
2 47787  53.0537 191.8396 0001279  87.3100 272.8035 15.06393715181909
STARLINK-2314           
1 47788U 21018B   24171.40711104  .00001282  00000+0  10497-3 0  9995
2 47788  53.0541 167.0881 0001250  83.1988 276.9144 15.06395643182264
STARLINK-2315           
1 47789U 21018C   24171.72179829  .00000694  00000+0  65499-4 0  9992
2 47789  53.0545 170.6776 0001355  92.7113 267.4031 15.06395389182238
STARLINK-2319           
1 47790U 21018D   24171.69692417  .00000472  00000+0  50572-4 0  9993
2 47790  53.0533 160.7866 0001346  92.8407 267.2736 15.06390720182373
STARLINK-2322           
1 47791U 21018E   24171.31819660  .00000119  00000+0  26882-4 0  9999
2 47791  53.0535 192.4863 0001273  90.8098 269.3037 15.06386696181898
STARLINK-2334           
1 47792U 21018F   24171.72916743  .00000937  00000+0  81792-4 0  9994
2 47792  53.0531 170.6392 0001168  92.8060 267.3062 15.06397430182237
STARLINK-2338           
1 47793U 21018G   24171.41218593 -.00000438  00000+0 -10532-4 0  9991
2 47793  53.0534 172.0628 0001404  92.7772 267.3377 15.06386100182175
STARLINK-2347           
1 47795U 21018J   24171.40480873  .00001149  00000+0  96025-4 0  9993
2 47795  53.0536 172.1006 0001215  87.9929 272.1199 15.06393795182231
STARLINK-2373           
1 47796U 21018K   24171.41955000  .00001174  00000+0  97692-4 0  9993
2 47796  53.0538 172.0280 0001237  81.0729 279.0400 15.06395980182187
STARLINK-2377           
1 47797U 21018L   24171.45596060 -.00000337  00000+0 -37417-5 0  9997
2 47797  53.0535 196.8658 0001183  87.1506 272.9618 15.06388743181831
STARLINK-2379           
1 47798U 21018M   24171.69600583 -.00000814  00000+0 -35762-4 0  9990
2 47798  53.0544 170.7910 0001253  88.1173 271.9959 15.06383570182227
STARLINK-2380           
1 47799U 21018N   24171.29423608  .00000903  00000+0  79538-4 0  9994
2 47799  53.0537 172.5921 0001439  88.6545 271.4609 15.06383523182153
STARLINK-2381           
1 47800U 21018P   24171.71443227 -.00000233  00000+0  32300-5 0  9997
2 47800  53.0539 170.7073 0001289  81.8577 278.2558 15.06393241182223
STARLINK-2382           
1 47801U 21018Q   24171.91805052 -.00000952  00000+0 -29949-5 0  9992
2 47801  53.0550 136.8018 0001235  92.9904 267.1254 15.69717482182728
STARLINK-2383           
1 47802U 21018R   24171.39698491 -.00000165  00000+0  78117-5 0  9998
2 47802  53.0544 197.1333 0001201  90.9384 269.1743 15.06387886181833
STARLINK-2384           
1 47803U 21018S   24171.72548390  .00000800  00000+0  72566-4 0  9994
2 47803  53.0539 170.6580 0001220  85.7424 274.3705 15.06395485182220
STARLINK-2385           
1 47804U 21018T   24171.40849873  .00000482  00000+0  51288-4 0  9994
2 47804  53.0532 172.0780 0001237  87.3614 272.7516 15.06390156182175
STARLINK-2386           
1 47805U 21018U   24171.70710591  .00003616  00000+0  26174-3 0  9999
2 47805  53.0537 170.9827 0001410  96.2672 263.8477 15.06369303182229
STARLINK-2387           
1 47806U 21018V   24171.44583124  .00003190  00000+0  23301-3 0  9997
2 47806  53.0531 186.9208 0000724  77.6589 282.4481 15.06389652182031
STARLINK-2388           
1 47807U 21018W   24171.70060509  .00001294  00000+0  10576-3 0  9997
2 47807  53.0533 160.7703 0001325  86.9063 273.2078 15.06396378182350
STARLINK-2389           
1 47808U 21018X   24171.72964024 -.00000273  00000+0  58371-6 0  9990
2 47808  53.0529 185.6357 0001212  91.0986 269.0142 15.06390451182073
STARLINK-2391           
1 47810U 21018Z   24171.49419905  .00001299  00000+0  10612-3 0  9991
2 47810  53.0539 201.6944 0001204  87.1280 272.9847 15.06393550181822
STARLINK-2392           
1 47811U 21018AA  24171.73286162  .00000134  00000+0  27917-4 0  9990
2 47811  53.0526 170.6234 0001260  91.1819 268.9315 15.06390795182285
STARLINK-2393           
1 47812U 21018AB  24171.50525673 -.00000232  00000+0  32982-5 0  9998
2 47812  53.0533 201.6450 0001240  87.2106 272.9025 15.06390996181760
